[{"OBJECT_NAME":"OCEANSAT-2","OBJECT_ID":"2009-051A","EPOCH":"2026-03-09T23:26:13.608096","MEAN_MOTION":13.9963812,"ECCENTRICITY":0.00172663,"INCLINATION":98.2279,"RA_OF_ASC_NODE":65.7594,"ARG_OF_PERICENTER":150.7548,"MEAN_ANOMALY":209.4589,"EPHEMERIS_TYPE":0,"CLASSIFICATION_TYPE":"U","NORAD_CAT_ID":35931,"ELEMENT_SET_NO":999,"REV_AT_EPOCH":86545,"BSTAR":0.00020254017,"MEAN_MOTION_DOT":2.59e-6,"MEAN_MOTION_DDOT":0},{"OBJECT_NAME":"EXPLORER 20","OBJECT_ID":"1964-051A","EPOCH":"2026-03-09T21:24:55.634112","MEAN_MOTION":13.91769262,"ECCENTRICITY":0.00966888,"INCLINATION":79.8998,"RA_OF_ASC_NODE":26.7964,"ARG_OF_PERICENTER":184.1501,"MEAN_ANOMALY":175.8866,"EPHEMERIS_TYPE":0,"CLASSIFICATION_TYPE":"U","NORAD_CAT_ID":870,"ELEMENT_SET_NO":999,"REV_AT_EPOCH":11962,"BSTAR":0.00010040406,"MEAN_MOTION_DOT":1.4e-6,"MEAN_MOTION_DDOT":0}]
